CAS-2T & KS-1Q          
1 41847U 16066G   21156.71708859  .00000105  00000-0  26961-4 0  9997
2 41847  98.6018 215.7977 0364092 255.3887 100.6673 14.38192376240191
NAYIF-1 (EO-88)         
1 42017U 17008BX  21156.77457247  .00002183  00000-0  82234-4 0  9995
2 42017  97.3164 224.5833 0007174 138.6213 221.5571 15.28134173239479
ZHUHAI-1 02 (CAS-4B)    
1 42759U 17034B   21157.11394235  .00000194  00000-0  24991-4 0  9999
2 42759  43.0172 243.4222 0007414  90.6482 339.7810 15.10217529219433
ZHUHAI-1 01 (CAS-4A)    
1 42761U 17034D   21157.10570959  .00000352  00000-0  34427-4 0  9991
2 42761  43.0173 242.5313 0007800  90.9065 340.2638 15.10305302219439
MAX VALIER SAT          
1 42778U 17036P   21156.87621957  .00001235  00000-0  54440-4 0  9997
2 42778  97.2555 205.8665 0010929 209.2594 150.8032 15.23582611219529
RADFXSAT (FOX-1B)       
1 43017U 17073E   21156.70130174  .00000843  00000-0  70448-4 0  9993
2 43017  97.7080  61.1524 0254541 339.0912  20.0034 14.79547022191387
FOX-1D (AO-92)          
1 43137U 18004AC  21156.78628854  .00001319  00000-0  55356-4 0  9996
2 43137  97.4069 230.9366 0007224 248.0104 112.0367 15.25227971188882
DIWATA-2B               
1 43678U 18084H   21157.11763404  .00000447  00000-0  50103-4 0  9999
2 43678  97.9223 282.3392 0011515  88.3003 271.9532 14.91754267141748
ES'HAIL 2               
1 43700U 18090A   21156.86465868  .00000149  00000-0  00000-0 0  9992
2 43700   0.0222 330.7760 0000975 120.6687 140.1312  1.00269418  9258
FOX-1CLIFF (AO-95)      
1 43770U 18099N   21156.73955300  .00000810  00000-0  78488-4 0  9993
2 43770  97.6652 227.1851 0016171  96.9784 263.3277 14.95317650136701
ITASAT 1                
1 43786U 18099AE  21156.79487176  .00000389  00000-0  40041-4 0  9992
2 43786  97.6669 227.9091 0016675  90.5646 269.7486 14.95610888136741
JY1SAT (JO-97)          
1 43803U 18099AX  21156.69375716  .00000364  00000-0  37614-4 0  9992
2 43803  97.6635 227.5634 0016781  90.3046 270.0098 14.95860426136731
UWE-4                   
1 43880U 18111E   21156.68526015  .00000839  00000-0  78133-4 0  9999
2 43880  97.6878  64.6184 0013329 137.9326 222.2921 14.96860493133320
PSAT2 (NO-104)          
1 44354U 19036R   21156.43558987  .00011682  00000-0  15249-3 0  9995
2 44354  28.5262 207.1483 0326859 145.6979 216.5184 15.13212692107159
BRICSAT2 (NO-103)       
1 44355U 19036S   21156.33199569  .00022772  00000-0  25018-3 0  9999
2 44355  28.5246 164.7374 0266168 214.8472 143.4431 15.28871596107571
JAISAT-1                
1 44419U 19038F   21156.87197704  .00001182  00000-0  69027-4 0  9991
2 44419  97.5876 121.6163 0021009 357.2180   2.8930 15.13741665106046
DUCHIFAT-3              
1 44854U 19089C   21157.07361993  .00000286  00000-0  29227-4 0  9998
2 44854  36.9645 167.9321 0008076  38.5227 321.6095 14.99490509 81394
RS-44 & BREEZE-KM R/B   
1 44909U 19096E   21156.90027790  .00000017  00000-0  14762-4 0  9992
2 44909  82.5196 120.4888 0218340 119.9467 242.3509 12.79710051 67343
ORBITAL FACTORY 2 (OF-2)
1 45113U 19071C   21156.56213609  .00003140  00000-0  99881-4 0  9996
2 45113  51.6424  95.1644 0011196 250.2517 109.7259 15.35699003 75340
HUSKYSAT-1 (HO-107)     
1 45119U 19071J   21156.24839515  .00002702  00000-0  87411-4 0  9996
2 45119  51.6418  96.0649 0010592 245.2824 114.7057 15.35726659 75292
BY70-2                  
1 45857U 20042B   21157.12841997  .00001264  00000-0  18661-3 0  9992
2 45857  97.9837 232.9932 0009458 245.5472 114.4760 14.77003220 49876
SALSAT                  
1 46495U 20068K   21156.88047404  .00000167  00000-0  16737-4 0  9996
2 46495  97.6950  94.4452 0018969 109.3272 251.0005 15.03459018 37594
BY70-3                  
1 46839U 20079N   21157.15906476  .00002535  00000-0  80357-4 0  9994
2 46839  97.2404 231.2386 0005420 240.5226 204.5719 15.33611530 32477
RADFXSAT-2 (AO-109)     
1 47311U 21002C   21156.85887790  .00000802  00000-0  46861-4 0  9997
2 47311  60.6851 334.6012 0034797  41.6637 318.7090 15.21624763 21109
UVSQ-SAT                
1 47438U 21006AB  21156.80885552  .00000889  00000-0  53742-4 0  9991
2 47438  97.4878 218.2409 0014006 133.6865 226.5529 15.13116469 20291
DIY-1 (ARDUIQUBE)       
1 47963U 21022AH  21156.47811595  .00002398  00000-0  16282-3 0  9995
2 47963  97.5597  59.0234 0019694 351.3013   8.7871 15.07197571 10095
